CCSDS_OMM_VERS = 2.0
CREATION_DATE  = 
ORIGINATOR     = 

OBJECT_NAME    = ERS-1
OBJECT_ID      = 1991-050A
CENTER_NAME    = EARTH
REF_FRAME      = TEME
TIME_SYSTEM    = UTC
MEAN_ELEMENT_THEORY = SGP/SGP4

EPOCH          = 2026-04-03T15:38:20.670432
MEAN_MOTION    = 14.39470022
ECCENTRICITY   = .0032908
INCLINATION    = 98.7859
RA_OF_ASC_NODE = 112.5119
ARG_OF_PERICENTER = 127.1573
MEAN_ANOMALY   = 233.2627

EPHEMERIS_TYPE = 0
CLASSIFICATION_TYPE = U
NORAD_CAT_ID   = 21574
ELEMENT_SET_NO = 999
REV_AT_EPOCH   = 81932
BSTAR          = .19174E-3
MEAN_MOTION_DOT = .555E-5
MEAN_MOTION_DDOT = 0

CCSDS_OMM_VERS = 2.0
CREATION_DATE  = 
ORIGINATOR     = 

OBJECT_NAME    = ARIANE 40 R/B
OBJECT_ID      = 1991-050F
CENTER_NAME    = EARTH
REF_FRAME      = TEME
TIME_SYSTEM    = UTC
MEAN_ELEMENT_THEORY = SGP/SGP4

EPOCH          = 2026-04-03T17:06:03.969216
MEAN_MOTION    = 14.42913314
ECCENTRICITY   = .00032
INCLINATION    = 98.1960
RA_OF_ASC_NODE = 145.0035
ARG_OF_PERICENTER = 23.1439
MEAN_ANOMALY   = 336.9896

EPHEMERIS_TYPE = 0
CLASSIFICATION_TYPE = U
NORAD_CAT_ID   = 21610
ELEMENT_SET_NO = 999
REV_AT_EPOCH   = 82260
BSTAR          = .17009E-3
MEAN_MOTION_DOT = .527E-5
MEAN_MOTION_DDOT = 0

CCSDS_OMM_VERS = 2.0
CREATION_DATE  = 
ORIGINATOR     = 

OBJECT_NAME    = INTERCOSMOS 25
OBJECT_ID      = 1991-086A
CENTER_NAME    = EARTH
REF_FRAME      = TEME
TIME_SYSTEM    = UTC
MEAN_ELEMENT_THEORY = SGP/SGP4

EPOCH          = 2026-04-03T14:04:19.267104
MEAN_MOTION    = 12.12089685
ECCENTRICITY   = .1486351
INCLINATION    = 82.5999
RA_OF_ASC_NODE = 294.9553
ARG_OF_PERICENTER = 63.2920
MEAN_ANOMALY   = 311.2478

EPHEMERIS_TYPE = 0
CLASSIFICATION_TYPE = U
NORAD_CAT_ID   = 21819
ELEMENT_SET_NO = 999
REV_AT_EPOCH   = 49970
BSTAR          = .51833E-3
MEAN_MOTION_DOT = .2673E-4
MEAN_MOTION_DDOT = 0

CCSDS_OMM_VERS = 2.0
CREATION_DATE  = 
ORIGINATOR     = 

OBJECT_NAME    = SL-8 R/B
OBJECT_ID      = 1992-008B
CENTER_NAME    = EARTH
REF_FRAME      = TEME
TIME_SYSTEM    = UTC
MEAN_ELEMENT_THEORY = SGP/SGP4

EPOCH          = 2026-04-03T21:24:16.202016
MEAN_MOTION    = 13.75969847
ECCENTRICITY   = .0035802
INCLINATION    = 82.9242
RA_OF_ASC_NODE = 249.0260
ARG_OF_PERICENTER = 65.3935
MEAN_ANOMALY   = 45.0244

EPHEMERIS_TYPE = 0
CLASSIFICATION_TYPE = U
NORAD_CAT_ID   = 21876
ELEMENT_SET_NO = 999
REV_AT_EPOCH   = 71288
BSTAR          = .61813E-5
MEAN_MOTION_DOT = .22E-6
MEAN_MOTION_DDOT = 0

CCSDS_OMM_VERS = 2.0
CREATION_DATE  = 
ORIGINATOR     = 

OBJECT_NAME    = SL-8 R/B
OBJECT_ID      = 1992-020B
CENTER_NAME    = EARTH
REF_FRAME      = TEME
TIME_SYSTEM    = UTC
MEAN_ELEMENT_THEORY = SGP/SGP4

EPOCH          = 2026-04-03T15:41:13.467840
MEAN_MOTION    = 13.75550673
ECCENTRICITY   = .0028011
INCLINATION    = 82.9292
RA_OF_ASC_NODE = 135.2250
ARG_OF_PERICENTER = 225.9685
MEAN_ANOMALY   = 253.8677

EPHEMERIS_TYPE = 0
CLASSIFICATION_TYPE = U
NORAD_CAT_ID   = 21938
ELEMENT_SET_NO = 999
REV_AT_EPOCH   = 70456
BSTAR          = .14377E-4
MEAN_MOTION_DOT = .29E-6
MEAN_MOTION_DDOT = 0

CCSDS_OMM_VERS = 2.0
CREATION_DATE  = 
ORIGINATOR     = 

OBJECT_NAME    = USA 81
OBJECT_ID      = 1992-023A
CENTER_NAME    = EARTH
REF_FRAME      = TEME
TIME_SYSTEM    = UTC
MEAN_ELEMENT_THEORY = SGP/SGP4

EPOCH          = 2026-04-03T14:21:02.128320
MEAN_MOTION    = 14.32376553
ECCENTRICITY   = .0001546
INCLINATION    = 85.0040
RA_OF_ASC_NODE = 117.0652
ARG_OF_PERICENTER = 69.6675
MEAN_ANOMALY   = 290.4683

EPHEMERIS_TYPE = 0
CLASSIFICATION_TYPE = U
NORAD_CAT_ID   = 21949
ELEMENT_SET_NO = 999
REV_AT_EPOCH   = 9835
BSTAR          = .85021E-4
MEAN_MOTION_DOT = .25E-5
MEAN_MOTION_DDOT = 0

CCSDS_OMM_VERS = 2.0
CREATION_DATE  = 
ORIGINATOR     = 

OBJECT_NAME    = COSMOS 2219
OBJECT_ID      = 1992-076A
CENTER_NAME    = EARTH
REF_FRAME      = TEME
TIME_SYSTEM    = UTC
MEAN_ELEMENT_THEORY = SGP/SGP4

EPOCH          = 2026-04-03T18:35:15.707904
MEAN_MOTION    = 14.14089016
ECCENTRICITY   = .0017687
INCLINATION    = 71.0608
RA_OF_ASC_NODE = 325.6339
ARG_OF_PERICENTER = 169.1114
MEAN_ANOMALY   = 191.0395

EPHEMERIS_TYPE = 0
CLASSIFICATION_TYPE = U
NORAD_CAT_ID   = 22219
ELEMENT_SET_NO = 999
REV_AT_EPOCH   = 72192
BSTAR          = -.58939E-4
MEAN_MOTION_DOT = -.159E-5
MEAN_MOTION_DDOT = 0

CCSDS_OMM_VERS = 2.0
CREATION_DATE  = 
ORIGINATOR     = 

OBJECT_NAME    = SL-16 R/B
OBJECT_ID      = 1992-076B
CENTER_NAME    = EARTH
REF_FRAME      = TEME
TIME_SYSTEM    = UTC
MEAN_ELEMENT_THEORY = SGP/SGP4

EPOCH          = 2026-04-03T13:37:00.255648
MEAN_MOTION    = 14.16862791
ECCENTRICITY   = .00108935
INCLINATION    = 70.9986
RA_OF_ASC_NODE = 135.9727
ARG_OF_PERICENTER = 50.5206
MEAN_ANOMALY   = 111.1924

EPHEMERIS_TYPE = 0
CLASSIFICATION_TYPE = U
NORAD_CAT_ID   = 22220
ELEMENT_SET_NO = 999
REV_AT_EPOCH   = 72535
BSTAR          = -.44167951E-4
MEAN_MOTION_DOT = -.136E-5
MEAN_MOTION_DDOT = 0

CCSDS_OMM_VERS = 2.0
CREATION_DATE  = 
ORIGINATOR     = 

OBJECT_NAME    = COSMOS 2221
OBJECT_ID      = 1992-080A
CENTER_NAME    = EARTH
REF_FRAME      = TEME
TIME_SYSTEM    = UTC
MEAN_ELEMENT_THEORY = SGP/SGP4

EPOCH          = 2026-04-03T20:23:10.099680
MEAN_MOTION    = 14.96318186
ECCENTRICITY   = .0015692
INCLINATION    = 82.5014
RA_OF_ASC_NODE = 254.9727
ARG_OF_PERICENTER = 106.8740
MEAN_ANOMALY   = 253.4204

EPHEMERIS_TYPE = 0
CLASSIFICATION_TYPE = U
NORAD_CAT_ID   = 22236
ELEMENT_SET_NO = 999
REV_AT_EPOCH   = 78455
BSTAR          = .37212E-3
MEAN_MOTION_DOT = .4242E-4
MEAN_MOTION_DDOT = 0

CCSDS_OMM_VERS = 2.0
CREATION_DATE  = 
ORIGINATOR     = 

OBJECT_NAME    = SL-16 R/B
OBJECT_ID      = 1992-093B
CENTER_NAME    = EARTH
REF_FRAME      = TEME
TIME_SYSTEM    = UTC
MEAN_ELEMENT_THEORY = SGP/SGP4

EPOCH          = 2026-04-03T18:09:37.409472
MEAN_MOTION    = 14.15456222
ECCENTRICITY   = .0006643
INCLINATION    = 71.0221
RA_OF_ASC_NODE = 311.6459
ARG_OF_PERICENTER = 269.6902
MEAN_ANOMALY   = 90.3460

EPHEMERIS_TYPE = 0
CLASSIFICATION_TYPE = U
NORAD_CAT_ID   = 22285
ELEMENT_SET_NO = 999
REV_AT_EPOCH   = 71670
BSTAR          = .58585E-5
MEAN_MOTION_DOT = -.36E-6
MEAN_MOTION_DDOT = 0

CCSDS_OMM_VERS = 2.0
CREATION_DATE  = 
ORIGINATOR     = 

OBJECT_NAME    = COSMOS 2228
OBJECT_ID      = 1992-094A
CENTER_NAME    = EARTH
REF_FRAME      = TEME
TIME_SYSTEM    = UTC
MEAN_ELEMENT_THEORY = SGP/SGP4

EPOCH          = 2026-04-03T18:46:13.623168
MEAN_MOTION    = 14.97331669
ECCENTRICITY   = .0017201
INCLINATION    = 82.5200
RA_OF_ASC_NODE = 213.2857
ARG_OF_PERICENTER = 213.4615
MEAN_ANOMALY   = 146.5522

EPHEMERIS_TYPE = 0
CLASSIFICATION_TYPE = U
NORAD_CAT_ID   = 22286
ELEMENT_SET_NO = 999
REV_AT_EPOCH   = 77981
BSTAR          = .37009E-3
MEAN_MOTION_DOT = .4332E-4
MEAN_MOTION_DDOT = 0

CCSDS_OMM_VERS = 2.0
CREATION_DATE  = 
ORIGINATOR     = 

OBJECT_NAME    = SL-16 R/B
OBJECT_ID      = 1993-016B
CENTER_NAME    = EARTH
REF_FRAME      = TEME
TIME_SYSTEM    = UTC
MEAN_ELEMENT_THEORY = SGP/SGP4

EPOCH          = 2026-04-03T14:06:08.806752
MEAN_MOTION    = 14.15308080
ECCENTRICITY   = .0012375
INCLINATION    = 71.0073
RA_OF_ASC_NODE = 162.8921
ARG_OF_PERICENTER = 282.2412
MEAN_ANOMALY   = 77.7325

EPHEMERIS_TYPE = 0
CLASSIFICATION_TYPE = U
NORAD_CAT_ID   = 22566
ELEMENT_SET_NO = 999
REV_AT_EPOCH   = 70569
BSTAR          = .19729E-3
MEAN_MOTION_DOT = .337E-5
MEAN_MOTION_DDOT = 0

